{
  "norad_id": 68409,
  "name": "LPNTSAT-002 (IOD-2)",
  "history": [
    {
      "epoch": "2026-03-30T22:01:49.710144Z",
      "apogee_km": 519.9416140552885,
      "perigee_km": 502.7028092159353,
      "latitude_deg": -1.3223002614979175e-05,
      "longitude_deg": 173.29129230063933,
      "height_km": 513.7908097954719,
      "semi_major_axis_km": 6889.459211635612,
      "eccentricity": 0.0012511,
      "inclination_deg": 97.4122,
      "raan_deg": 332.0512,
      "arg_perigee_deg": 274.1697,
      "mean_anomaly_deg": 85.8107,
      "mean_motion_rev_day": 15.18186279
    }
  ]
}